49P/Arend-Rigaux,e,19.0588,118.7925,332.9352,3.570067,0.1461132,0.59907135,352.4576,02/18.0/2025,2000,g 11.3,4.4
# From MPEC 2025-CE3
50P/Arend,e,19.0994,355.1467,49.3250,4.087714,0.1192568,0.52980185,33.5494,02/18.0/2025,2000,g  9.5,6.0
# From MPEC 2025-CE3
60P/Tsuchinshan,e,3.5798,267.3972,216.9329,3.530189,0.1485960,0.53386822,337.3185,02/18.0/2025,2000,g 11.5,6.0
# From MPEC 2025-CE3
62P/Tsuchinshan,e,4.7373,68.6663,47.3230,3.370721,0.1592648,0.62469934,67.0226,02/18.0/2025,2000,g  8.0,10.0
# From MPEC 2025-CE3
74P/Smirnova-Chernykh,e,6.2925,53.4823,78.6976,4.989724,0.0884279,0.03664771,304.1054,02/18.0/2025,2000,g  5.0,6.0
# From MPEC 2025-CE3
88P/Howell,e,4.3820,56.6682,235.8881,3.108115,0.1798699,0.56318615,289.1640,02/18.0/2025,2000,g 11.0,6.0
# From MPEC 2025-CE3
89P/Russell,e,12.0721,41.3443,250.4084,3.750600,0.1356916,0.40754571,44.5616,02/18.0/2025,2000,g 11.5,6.0
# From MPEC 2025-CE3
103P/Hartley,e,13.6094,219.7534,181.3232,3.475392,0.1521242,0.69359682,75.2299,02/18.0/2025,2000,g  8.5,8.0
# From MPEC 2025-CE3
130P/McNaught-Hughes,e,6.0630,70.1804,246.2027,3.383976,0.1583300,0.46106366,48.9173,02/18.0/2025,2000,g 10.0,6.0
# From MPEC 2025-CE3
136P/Mueller,e,9.4275,137.4229,225.2964,4.185103,0.1151184,0.29311378,5.2542,02/18.0/2025,2000,g 11.0,4.0
# From MPEC 2025-CE3
146P/Shoemaker-LINEAR,e,23.1201,53.3700,317.0676,4.027334,0.1219488,0.64758302,23.9708,02/18.0/2025,2000,g 15.0,4.0
# From MPEC 2025-CE3
154P/Brewington,e,17.6360,342.9988,47.9460,4.797795,0.0937868,0.67636733,23.4234,02/18.0/2025,2000,g  2.5,12.0
# From MPEC 2025-CE3
158P/Kowal-LINEAR,e,7.4105,124.7808,226.3726,5.656285,0.0732668,0.11804729,67.5807,02/18.0/2025,2000,g  9.0,4.0
# From MPEC 2025-CE3
170P/Christensen,e,10.1257,142.6445,224.8381,4.196795,0.1146377,0.30523051,77.2524,02/18.0/2025,2000,g 12.0,4.0
# From MPEC 2025-CE3
172P/Yeung,e,11.2238,30.8821,208.9171,4.222761,0.1135819,0.20476758,330.7348,02/18.0/2025,2000,g 13.0,4.0
# From MPEC 2025-CE3
195P/Hill,e,36.4192,243.1050,250.5372,6.449716,0.0601718,0.31147524,349.8840,02/18.0/2025,2000,g  8.5,4.0
# From MPEC 2025-CE3
208P/McMillan,e,4.4122,36.3356,310.7172,4.038866,0.1214269,0.37388269,21.6086,02/18.0/2025,2000,g 12.5,4.0
# From MPEC 2025-CE3
217P/LINEAR,e,12.8654,125.3716,247.0353,3.944475,0.1258115,0.68909125,347.9293,02/18.0/2025,2000,g 12.0,4.0
# From MPEC 2025-CE3
219P/LINEAR,e,11.5334,230.9480,107.8002,3.652429,0.1411989,0.35501898,52.1772,02/18.0/2025,2000,g 11.0,4.0
# From MPEC 2025-CE3
229P/Gibbs,e,26.0973,157.8839,224.2110,3.922913,0.1268502,0.37791910,357.9999,02/18.0/2025,2000,g 13.0,4.0
# From MPEC 2025-CE3
235P/LINEAR,e,9.8128,200.2074,352.0788,3.449331,0.1538515,0.42642459,312.6993,02/18.0/2025,2000,g 12.0,4.0
# From MPEC 2025-CE3
237P/LINEAR,e,14.0158,245.3546,25.4800,3.515333,0.1495390,0.43319218,96.4997,02/18.0/2025,2000,g 14.5,2.0
# From MPEC 2025-CE3
242P/Spahr,e,32.4263,180.2837,244.9287,5.537338,0.0756402,0.28275748,4.2933,02/18.0/2025,2000,g  8.0,4.0
# From MPEC 2025-CE3
253P/PANSTARRS,e,4.9440,146.8567,230.8344,3.463831,0.1528865,0.41486989,18.3447,02/18.0/2025,2000,g 14.5,4.0
# From MPEC 2025-CE3
268P/Bernardi,e,15.6613,125.6321,0.0136,4.591668,0.1001724,0.47456130,6.1632,02/18.0/2025,2000,g 14.0,4.0
# From MPEC 2025-CE3
276P/Vorobjov,e,14.7924,211.3218,199.2812,5.356643,0.0794996,0.27217701,5.5025,02/18.0/2025,2000,g 11.5,4.0
# From MPEC 2025-CE3
294P/LINEAR,e,17.7406,309.6044,237.5693,3.191588,0.1728597,0.60110382,329.8919,02/18.0/2025,2000,g 15.5,4.0
# From MPEC 2025-CE3
305P/Skiff,e,11.6715,240.1045,147.4200,4.637412,0.0986940,0.69409436,9.1634,02/18.0/2025,2000,g 18.0,4.0
# From MPEC 2025-CE3
323P/SOHO,e,5.2104,323.9530,353.3218,2.440218,0.2585599,0.98344354,0.0000,03/14.2304/2025,2000,g 20.0,4.0
# From MPEC 2025-CE3
333P/LINEAR,e,132.0224,115.7064,26.0173,4.220273,0.1136824,0.73628583,9.1745,02/18.0/2025,2000,g 15.0,4.0
# From MPEC 2025-CE3
338P/McNaught,e,25.3790,9.7772,4.6185,3.895433,0.1281948,0.41266714,25.4684,02/18.0/2025,2000,g 12.0,4.0
# From MPEC 2025-CE3
382P/Larson,e,8.2617,170.6317,162.2424,5.899264,0.0687871,0.26689420,82.6992,02/18.0/2025,2000,g  8.0,4.0
# From MPEC 2025-CE3
384P/Kowalski,e,7.2836,354.1899,37.7113,2.898034,0.1997785,0.61629277,30.3397,02/18.0/2025,2000,g 19.5,4.0
# From MPEC 2025-CE3
404P/Bressi,e,9.8043,260.0418,169.0933,4.720455,0.0961011,0.12451756,45.5821,02/18.0/2025,2000,g 10.0,4.0
# From MPEC 2025-CE3
408P/Novichonok-Gerke,e,19.3532,189.4499,226.6724,4.745334,0.0953463,0.26851832,82.5643,02/18.0/2025,2000,g 11.0,4.0
# From MPEC 2025-CE3
450P/LONEOS,e,10.6173,124.4695,22.6117,7.955424,0.0439247,0.31395941,328.9748,02/18.0/2025,2000,g  6.5,4.0
# From MPEC 2025-CE3
456P/PANSTARRS,e,16.9668,243.1522,233.0385,3.171504,0.1745043,0.11643234,350.2080,02/18.0/2025,2000,g 13.5,4.0
# From MPEC 2025-CE3
470P/PANSTARRS,e,8.8443,246.1733,151.7446,4.466313,0.1044192,0.38955642,44.7961,02/18.0/2025,2000,g 15.5,4.0
# From MPEC 2025-CE3
472P/NEAT-LINEAR,e,10.8243,205.8932,218.8757,7.798477,0.0452574,0.56550129,9.8839,02/18.0/2025,2000,g 10.5,4.0
# From MPEC 2025-CE3
476P/PANSTARRS,e,19.0053,57.0528,46.7336,4.777064,0.0943979,0.34617489,11.7512,02/18.0/2025,2000,g 12.5,4.0
# From MPEC 2025-CE3
487P/SidingSpring,e,39.3670,49.2082,0.8567,5.165126,0.0839620,0.64862170,10.1064,02/18.0/2025,2000,g 13.5,4.0
# From MPEC 2025-CE3
492P/LINEAR,e,11.4004,11.3087,40.9925,5.762785,0.0712452,0.69076114,15.1407,02/18.0/2025,2000,g 15.0,4.0
# From MPEC 2025-CE3
496P/Hill,e,14.8146,63.5878,42.2481,6.103014,0.0653714,0.73438562,358.6740,02/18.0/2025,2000,g 14.0,4.0
# From MPC107687
1I/`Oumuamua,h,09/09.4886/2017,122.6778,24.5997,241.6845,1.199252,0.255240,2000,23.0,2.0
# From MPEC 2023-L37
2I/Borisov,h,12/08.5548/2019,44.0527,308.1480,209.1251,3.356633,2.006548,2000,11.0,4.0
